NORAD_CAT_ID,OBJECT_NAME,OBJECT_TYPE,EPOCH,MEAN_MOTION,ECCENTRICITY,INCLINATION,RA_OF_ASC_NODE,ARG_OF_PERICENTER,MEAN_ANOMALY,BSTAR,MEAN_MOTION_DOT,MEAN_MOTION_DDOT,TLE_LINE0,TLE_LINE1,TLE_LINE2,SEMIMAJOR_AXIS,PERIOD,APOGEE,PERIGEE,DECAYED
49765.0,STARLINK-3227,PAYLOAD,2022-02-11 22:00:01,15.40560014,0.0002027,53.2185,342.9225,31.1266,240.5128,-0.00029917,-0.00012727,0.0,0 STARLINK-3227,1 49765U 21115AT  22042.91668981 -.00012727  00000-0 -29917-3 0  9991,2 49765  53.2185 342.9225 0002027  31.1266 240.5128 15.40560014  3645,6822.592,93.473,445.84,443.074,0.0
49765.0,STARLINK-3227,PAYLOAD,2022-02-12 04:36:41,15.40531144,0.0002301,53.2191,341.6225,26.7065,333.4059,0.00023522,9.303e-05,0.0,0 STARLINK-3227,1 49765U 21115AT  22043.19214285  .00009303  00000-0  23522-3 0  9996,2 49765  53.2191 341.6225 0002301  26.7065 333.4059 15.40531144 12243,6822.678000000001,93.474,446.11300000000006,442.973,0.0
49765.0,STARLINK-3227,PAYLOAD,2022-02-12 12:23:48,15.40516942,0.0002248,53.219,340.0956,26.7869,333.3252,0.0001115,4.192e-05,0.0,0 STARLINK-3227,1 49765U 21115AT  22043.51653071  .00004192  00000-0  11150-3 0  9997,2 49765  53.2190 340.0956 0002248  26.7869 333.3252 15.40516942 11183,6822.72,93.475,446.11800000000005,443.051,0.0
49765.0,STARLINK-3227,PAYLOAD,2022-02-12 22:00:00,15.40270203,0.0002097,53.2184,338.2113,33.388000000000005,26.9569,0.0037842,0.00157465,0.0,0 STARLINK-3227,1 49765U 21115AT  22043.91667824  .00157465  00000-0  37842-2 0  9999,2 49765  53.2184 338.2113 0002097  33.3880  26.9569 15.40270203 12352,6823.448,93.49,446.744,443.882,0.0
49765.0,STARLINK-3227,PAYLOAD,2022-02-13 14:00:01,15.40431939,0.0002069,53.2185,335.0705,28.0227,131.3331,8.2321e-05,2.98e-05,0.0,0 STARLINK-3227,1 49765U 21115AT  22044.58334491  .00002980  00000-0  82321-4 0  9999,2 49765  53.2185 335.0705 0002069  28.0227 131.3331 15.40431939 12454,6822.971,93.48,446.247,443.424,0.0
49765.0,STARLINK-3227,PAYLOAD,2022-02-14 14:00:01,15.40396925,0.0002175,53.2191,330.3593,30.0964,277.9248,0.0014899,0.00061229,0.0,0 STARLINK-3227,1 49765U 21115AT  22045.58334491  .00061229  00000-0  14899-2 0  9994,2 49765  53.2191 330.3593 0002175  30.0964 277.9248 15.40396925  3643,6823.074000000001,93.482,446.423,443.455,0.0
49765.0,STARLINK-3227,PAYLOAD,2022-02-14 20:00:01,15.40425571,0.0002259,53.2193,329.1815,33.6327,221.5122,0.00017124,6.636e-05,0.0,0 STARLINK-3227,1 49765U 21115AT  22045.83334491  .00006636  00000-0  17124-3 0  9998,2 49765  53.2193 329.1815 0002259  33.6327 221.5122 15.40425571 12649,6822.989000000001,93.481,446.396,443.31300000000016,0.0
49765.0,STARLINK-3227,PAYLOAD,2022-02-15 14:00:01,15.40415515,0.000224,53.2194,325.6482,28.0749,68.5856,0.0007031,0.00028575,0.0,0 STARLINK-3227,1 49765U 21115AT  22046.58334491  .00028575  00000-0  70310-3 0  9993,2 49765  53.2194 325.6482 0002240  28.0749  68.5856 15.40415515  3614,6823.019,93.481,446.412,443.356,0.0
49765.0,STARLINK-3227,PAYLOAD,2022-02-15 22:00:01,15.40454253,0.0002307,53.2193,324.0786,28.5747,117.6912,0.00027108,0.00010757,0.0,0 STARLINK-3227,1 49765U 21115AT  22046.91668981  .00010757  00000-0  27108-3 0  9994,2 49765  53.2193 324.0786 0002307  28.5747 117.6912 15.40454253 12813,6822.905,93.479,446.344,443.196,0.0
49765.0,STARLINK-3227,PAYLOAD,2022-02-16 14:00:01,15.40468061,0.0002209,53.2188,320.9371,25.5694,219.8164,0.00082954,0.0003387,0.0,0 STARLINK-3227,1 49765U 21115AT  22047.58334491  .00033870  00000-0  82954-3 0  9995,2 49765  53.2188 320.9371 0002209  25.5694 219.8164 15.40468061  3637,6822.864000000001,93.478,446.236,443.222,0.0
49765.0,STARLINK-3227,PAYLOAD,2022-02-16 22:00:00,15.40501282,0.000233,53.2186,319.3677,26.7236,268.2767,-0.00034042,-0.00014396,0.0,0 STARLINK-3227,1 49765U 21115AT  22047.91667824 -.00014396  00000-0 -34042-3 0  9990,2 49765  53.2186 319.3677 0002330  26.7236 268.2767 15.40501282  3614,6822.766,93.476,446.221,443.041,0.0
49765.0,STARLINK-3227,PAYLOAD,2022-02-17 06:00:00,15.40496816,0.0002492,53.2179,317.7981,24.1324,320.4958,0.00017546,6.827e-05,0.0,0 STARLINK-3227,1 49765U 21115AT  22048.25001157  .00006827  00000-0  17546-3 0  9997,2 49765  53.2179 317.7981 0002492  24.1324 320.4958 15.40496816 13020,6822.779,93.476,446.344,442.944,0.0
49765.0,STARLINK-3227,PAYLOAD,2022-02-17 14:00:01,15.40472843,0.0002198,53.2178,316.2256,27.2436,7.0323,0.00061545,0.00024999,0.0,0 STARLINK-3227,1 49765U 21115AT  22048.58334491  .00024999  00000-0  61545-3 0  9991,2 49765  53.2178 316.2256 0002198  27.2436   7.0323 15.40472843  3611,6822.85,93.478,446.214,443.215,0.0
49765.0,STARLINK-3227,PAYLOAD,2022-02-17 22:00:00,15.40505043,0.0002228,53.2178,314.6564,25.5201,58.368,-0.0014274,-0.00058742,0.0,0 STARLINK-3227,1 49765U 21115AT  22048.91667824 -.00058742  00000-0 -14274-2 0  9998,2 49765  53.2178 314.6564 0002228  25.5201  58.3680 15.40505043 13121,6822.755,93.476,446.14,443.1,0.0
49765.0,STARLINK-3227,PAYLOAD,2022-02-18 14:00:01,15.40411157,0.0002122,53.2171,311.5142,24.9196,158.144,0.00096439,0.00039395,0.0,0 STARLINK-3227,1 49765U 21115AT  22049.58334491  .00039395  00000-0  96439-3 0  9998,2 49765  53.2171 311.5142 0002122  24.9196 158.1440 15.40411157  3653,6823.031999999997,93.482,446.345,443.449,0.0
49765.0,STARLINK-3227,PAYLOAD,2022-02-18 20:00:01,15.404300199999998,0.0002174,53.2175,310.3371,25.6912,104.5127,0.00026512,0.00010503,0.0,0 STARLINK-3227,1 49765U 21115AT  22049.83334491  .00010503  00000-0  26512-3 0  9991,2 49765  53.2175 310.3371 0002174  25.6912 104.5127 15.40430020 13264,6822.976,93.48,446.325,443.358,0.0
49765.0,STARLINK-3227,PAYLOAD,2022-02-19 06:00:00,15.40469964,0.0002395,53.2169,308.375,23.0306,259.1362,0.00013162,5.014e-05,0.0,0 STARLINK-3227,1 49765U 21115AT  22050.25001157  .00005014  00000-0  13162-3 0  9997,2 49765  53.2169 308.3750 0002395  23.0306 259.1362 15.40469964 13334,6822.858,93.478,446.357,443.089,0.0
49765.0,STARLINK-3227,PAYLOAD,2022-02-19 14:00:01,15.40444775,0.0002202,53.2172,306.8026,27.6206,304.1582,0.0023534,0.00097569,0.0,0 STARLINK-3227,1 49765U 21115AT  22050.58334491  .00097569  00000-0  23534-2 0  9992,2 49765  53.2172 306.8026 0002202  27.6206 304.1582 15.40444775  3611,6822.933000000001,93.479,446.3,443.295,0.0
49765.0,STARLINK-3227,PAYLOAD,2022-02-19 22:00:00,15.40528988,0.0002329,53.2174,305.2333,26.0508,355.3325,-0.0014386,-0.00059243,0.0,0 STARLINK-3227,1 49765U 21115AT  22050.91667824 -.00059243  00000-0 -14386-2 0  9992,2 49765  53.2174 305.2333 0002329  26.0508 355.3325 15.40528988  3628,6822.684,93.474,446.138,442.96,0.0
49765.0,STARLINK-3227,PAYLOAD,2022-02-20 06:00:00,15.4050856,0.0002449,53.2172,303.6629,22.5262,48.5022,-0.00093173,-0.00038589,0.0,0 STARLINK-3227,1 49765U 21115AT  22051.25001157 -.00038589  00000-0 -93173-3 0  9993,2 49765  53.2172 303.6629 0002449  22.5262  48.5022 15.40508560 13481,6822.744000000002,93.476,446.28,442.93800000000016,0.0
49765.0,STARLINK-3227,PAYLOAD,2022-02-20 14:00:01,15.40460271,0.0002267,53.2175,302.0904,26.7855,93.8797,-0.00014376,-6.311e-05,0.0,0 STARLINK-3227,1 49765U 21115AT  22051.58334491 -.00006311  00000-0 -14376-3 0  9995,2 49765  53.2175 302.0904 0002267  26.7855  93.8797 15.40460271  3617,6822.887,93.479,446.299,443.205,0.0
49765.0,STARLINK-3227,PAYLOAD,2022-02-20 22:00:00,15.40440073,0.000247,53.2176,300.5213,26.6993,143.5526,1.3848e-05,1.65e-06,0.0,0 STARLINK-3227,1 49765U 21115AT  22051.91667824  .00000165  00000-0  13848-4 0  9994,2 49765  53.2176 300.5213 0002470  26.6993 143.5526 15.40440073  3613,6822.946999999999,93.48,446.497,443.126,0.0
49765.0,STARLINK-3227,PAYLOAD,2022-02-21 14:00:01,15.40402156,0.0002356,53.2175,297.3785,26.4938,242.8913,0.00055793,0.00022564,0.0,0 STARLINK-3227,1 49765U 21115AT  22052.58334491  .00022564  00000-0  55793-3 0  9990,2 49765  53.2175 297.3785 0002356  26.4938 242.8913 15.40402156 13680,6823.059,93.482,446.531,443.316,0.0
49765.0,STARLINK-3227,PAYLOAD,2022-02-21 22:00:00,15.40415794,0.0002602,53.2175,295.8097,27.2489,291.6639,0.00022405,8.807e-05,0.0,0 STARLINK-3227,1 49765U 21115AT  22052.91667824  .00008807  00000-0  22405-3 0  9994,2 49765  53.2175 295.8097 0002602  27.2489 291.6639 15.40415794  3614,6823.018,93.481,446.659,443.108,0.0
49765.0,STARLINK-3227,PAYLOAD,2022-02-22 14:00:01,15.404728,0.0002382,53.2172,292.6595,26.6143,31.4711,0.00022806,8.99e-05,0.0,0 STARLINK-3227,1 49765U 21115AT  22053.58334491  .00008990  00000-0  22806-3 0  9997,2 49765  53.2172 292.6595 0002382  26.6143  31.4711 15.40472800 13842,6822.85,93.478,446.34,443.09,0.0
49765.0,STARLINK-3227,PAYLOAD,2022-02-22 22:00:00,15.40480027,0.0002488,53.217,291.0981,21.5644,86.1333,-0.00045845,-0.00019223,0.0,0 STARLINK-3227,1 49765U 21115AT  22053.91667824 -.00019223  00000-0 -45845-3 0  9994,2 49765  53.2170 291.0981 0002488  21.5644  86.1333 15.40480027  3643,6822.829000000002,93.477,446.391,442.996,0.0
49765.0,STARLINK-3227,PAYLOAD,2022-02-23 14:00:01,15.40432275,0.0002284,53.2166,287.9551,24.2474,182.6338,0.00026899,0.00010663,0.0,0 STARLINK-3227,1 49765U 21115AT  22054.58334491  .00010663  00000-0  26899-3 0  9994,2 49765  53.2166 287.9551 0002284  24.2474 182.6338 15.40432275 13998,6822.97,93.48,446.393,443.276,0.0
49765.0,STARLINK-3227,PAYLOAD,2022-02-23 22:00:00,15.40420453,0.0002551,53.2167,286.3865,24.4786,231.9585,0.00027745,0.00011007,0.0,0 STARLINK-3227,1 49765U 21115AT  22054.91667824  .00011007  00000-0  27745-3 0  9994,2 49765  53.2167 286.3865 0002551  24.4786 231.9585 15.40420453  3643,6823.004,93.481,446.61,443.129,0.0
49765.0,STARLINK-3227,PAYLOAD,2022-02-24 14:00:01,15.40446576,0.0002339,53.2167,283.2436,26.969,328.5982,0.0016071999999999,0.00066234,0.0,0 STARLINK-3227,1 49765U 21115AT  22055.58334491  .00066234  00000-0  16072-2 0  9991,2 49765  53.2167 283.2436 0002339  26.9690 328.5982 15.40446576  3646,6822.927,93.479,446.388,443.196,0.0
